NORAD_CAT_ID,OBJECT_NAME,OBJECT_TYPE,EPOCH,MEAN_MOTION,ECCENTRICITY,INCLINATION,RA_OF_ASC_NODE,ARG_OF_PERICENTER,MEAN_ANOMALY,BSTAR,MEAN_MOTION_DOT,MEAN_MOTION_DDOT,TLE_LINE0,TLE_LINE1,TLE_LINE2,SEMIMAJOR_AXIS,PERIOD,APOGEE,PERIGEE,DECAYED
53937.0,STARLINK-4765,PAYLOAD,2022-12-15 11:55:47,15.73219624,0.0003538,53.2103,209.4701,13.2032,346.908,3.9337e-05,4.906e-05,0.0,0 STARLINK-4765,1 53937U 22119BD  22349.49707268  .00004906  00000-0  39337-4 0  9993,2 53937  53.2103 209.4701 0003538  13.2032 346.9080 15.73219624 13695,6727.839,91.532,352.085,347.324,0.0
53937.0,STARLINK-4765,PAYLOAD,2022-12-15 19:33:11,15.73212318,0.0003789,53.2118,207.8982,9.0788,351.03,1.7646e-05,1.855e-05,0.0,0 STARLINK-4765,1 53937U 22119BD  22349.81471259  .00001855  00000-0  17646-4 0  9996,2 53937  53.2118 207.8982 0003789   9.0788 351.0300 15.73212318 13317,6727.86,91.532,352.274,347.176,0.0
53937.0,STARLINK-4765,PAYLOAD,2022-12-16 00:07:36,15.73229449,0.0003926,53.2116,206.9562,10.4123,349.6978,4.9592e-05,6.352e-05,0.0,0 STARLINK-4765,1 53937U 22119BD  22350.00528871  .00006352  00000-0  49592-4 0  9994,2 53937  53.2116 206.9562 0003926  10.4123 349.6978 15.73229449 13341,6727.811,91.531,352.3180000000001,347.035,0.0
53937.0,STARLINK-4765,PAYLOAD,2022-12-16 07:45:00,15.73219021,0.0003493,53.2115,205.3836,8.4618,351.646,4.5353e-06,1.3e-07,0.0,0 STARLINK-4765,1 53937U 22119BD  22350.32292805  .00000013  00000-0  45353-5 0  9994,2 53937  53.2115 205.3836 0003493   8.4618 351.6460 15.73219021 13391,6727.840999999999,91.532,352.056,347.356,0.0
53937.0,STARLINK-4765,PAYLOAD,2022-12-16 13:50:56,15.73213575,0.0003587,53.2117,204.1269,11.4046,348.7055,1.1956e-05,1.056e-05,0.0,0 STARLINK-4765,1 53937U 22119BD  22350.57704135  .00001056  00000-0  11956-4 0  9994,2 53937  53.2117 204.1269 0003587  11.4046 348.7055 15.73213575 13860,6727.856,91.532,352.135,347.30800000000005,0.0
53937.0,STARLINK-4765,PAYLOAD,2022-12-16 18:25:22,15.73211327,0.0003519,53.2116,203.1823,13.0002,347.1108,1.0803e-05,8.93e-06,0.0,0 STARLINK-4765,1 53937U 22119BD  22350.76762565  .00000893  00000-0  10803-4 0  9994,2 53937  53.2116 203.1823 0003519  13.0002 347.1108 15.73211327 13460,6727.863,91.533,352.095,347.36,0.0
53937.0,STARLINK-4765,PAYLOAD,2022-12-16 19:56:52,15.73192201,0.0003469,53.2114,202.8681,10.3067,349.8024,-2.2112e-05,-3.726e-05,0.0,0 STARLINK-4765,1 53937U 22119BD  22350.83116244 -.00003726  00000-0 -22112-4 0  9995,2 53937  53.2114 202.8681 0003469  10.3067 349.8024 15.73192201 13905,6727.917,91.534,352.116,347.4480000000001,0.0
53937.0,STARLINK-4765,PAYLOAD,2022-12-16 22:59:50,15.73195158,0.0003541,53.2117,202.2403,7.881,352.2265,9.0253e-06,6.43e-06,0.0,0 STARLINK-4765,1 53937U 22119BD  22350.95821765  .00000643  00000-0  90253-5 0  9994,2 53937  53.2117 202.2403 0003541   7.8810 352.2265 15.73195158 13495,6727.909000000002,91.533,352.156,347.392,0.0
53937.0,STARLINK-4765,PAYLOAD,2022-12-17 09:40:11,15.7319582,0.0003649,53.2118,200.0402,11.2453,348.8648,-2.6488e-05,-4.34e-05,0.0,0 STARLINK-4765,1 53937U 22119BD  22351.40291476 -.00004340  00000-0 -26488-4 0  9993,2 53937  53.2118 200.0402 0003649  11.2453 348.8648 15.73195820 13999,6727.906999999997,91.533,352.227,347.31699999999995,0.0
53937.0,STARLINK-4765,PAYLOAD,2022-12-17 15:46:06,15.73216147,0.0003684,53.2117,198.7818,6.4876,353.6191,3.6852e-07,-5.73e-06,0.0,0 STARLINK-4765,1 53937U 22119BD  22351.65701627 -.00000573  00000-0  36852-6 0  9995,2 53937  53.2117 198.7818 0003684   6.4876 353.6191 15.73216147 13607,6727.849,91.532,352.1930000000001,347.236,0.0
53937.0,STARLINK-4765,PAYLOAD,2022-12-17 20:20:32,15.73224791,0.0003681,53.2115,197.8383,7.3422,352.7651,1.8954e-05,2.04e-05,0.0,0 STARLINK-4765,1 53937U 22119BD  22351.84759406  .00002040  00000-0  18954-4 0  9995,2 53937  53.2115 197.8383 0003681   7.3422 352.7651 15.73224791 14062,6727.824000000001,91.532,352.166,347.213,0.0
53937.0,STARLINK-4765,PAYLOAD,2022-12-18 10:03:52,15.73209023,0.0003724,53.2112,195.0089,8.3574,351.7507,8.8626e-07,-5e-06,0.0,0 STARLINK-4765,1 53937U 22119BD  22352.41935241 -.00000500  00000-0  88626-6 0  9997,2 53937  53.2112 195.0089 0003724   8.3574 351.7507 15.73209023 13721,6727.869000000002,91.533,352.24,347.22900000000016,0.0
53937.0,STARLINK-4765,PAYLOAD,2022-12-18 11:35:21,15.7320335,0.0003861,53.2112,194.6939,9.5248,350.5844,6.9096000000000016e-06,3.46e-06,0.0,0 STARLINK-4765,1 53937U 22119BD  22352.48288394  .00000346  00000-0  69096-5 0  9990,2 53937  53.2112 194.6939 0003861   9.5248 350.5844 15.73203350 14160,6727.886,91.533,352.348,347.153,0.0
53937.0,STARLINK-4765,PAYLOAD,2022-12-18 19:12:45,15.73193021,0.0003077,53.2114,193.1212,9.2381,350.8695,-8.5277e-06,-1.82e-05,0.0,0 STARLINK-4765,1 53937U 22119BD  22352.80052704 -.00001820  00000-0 -85277-5 0  9999,2 53937  53.2114 193.1212 0003077   9.2381 350.8695 15.73193021 14210,6727.915,91.534,351.85,347.71,0.0
53937.0,STARLINK-4765,PAYLOAD,2022-12-18 20:44:14,15.73191164,0.0003438,53.2114,192.8068,8.5009,351.6068,-1.1896e-05,-2.293e-05,0.0,0 STARLINK-4765,1 53937U 22119BD  22352.86405693 -.00002293  00000-0 -11896-4 0  9994,2 53937  53.2114 192.8068 0003438   8.5009 351.6068 15.73191164 13796,6727.92,91.534,352.098,347.472,0.0
53937.0,STARLINK-4765,PAYLOAD,2022-12-19 15:02:00,15.732084699999998,0.0004162,53.2105,189.0363,14.1497,345.9639,9.5181e-06,7.12e-06,0.0,0 STARLINK-4765,1 53937U 22119BD  22353.62638905  .00000712  00000-0  95181-5 0  9995,2 53937  53.2105 189.0363 0004162  14.1497 345.9639 15.73208470 13914,6727.871,91.533,352.536,346.936,0.0
53937.0,STARLINK-4765,PAYLOAD,2022-12-19 19:36:25,15.73233899,0.0003684,53.2116,188.0912,7.5982,352.5093,4.853399999999999e-05,6.204e-05,0.0,0 STARLINK-4765,1 53937U 22119BD  22353.81695881  .00006204  00000-0  48534-4 0  9993,2 53937  53.2116 188.0912 0003684   7.5982 352.5093 15.73233899 14370,6727.799,91.531,352.142,347.185,0.0
53937.0,STARLINK-4765,PAYLOAD,2022-12-19 21:07:53,15.73239811,0.0003474,53.2115,187.7746,11.1098,348.9998,5.8492e-05,7.609e-05,0.0,0 STARLINK-4765,1 53937U 22119BD  22353.88048293  .00007609  00000-0  58492-4 0  9993,2 53937  53.2115 187.7746 0003474  11.1098 348.9998 15.73239811 13952,6727.781999999997,91.531,351.9840000000001,347.309,0.0
53937.0,STARLINK-4765,PAYLOAD,2022-12-20 13:54:09,15.73237357,0.0003398,53.2113,184.3161,7.8464,352.2608,4.704100000000001e-05,5.995e-05,0.0,0 STARLINK-4765,1 53937U 22119BD  22354.57927735  .00005995  00000-0  47041-4 0  9991,2 53937  53.2113 184.3161 0003398   7.8464 352.2608 15.73237357 14497,6727.7890000000025,91.531,351.94,347.36800000000005,0.0
53937.0,STARLINK-4765,PAYLOAD,2022-12-20 21:31:34,15.73199427,0.0003764,53.2112,182.7457,9.6404,350.4688,-4.4e-05,-6.797e-05,0.0,0 STARLINK-4765,1 53937U 22119BD  22354.89692842 -.00006797  00000-0 -44000-4 0  9999,2 53937  53.2112 182.7457 0003764   9.6404 350.4688 15.73199427 14119,6727.897,91.533,352.2940000000001,347.22900000000016,0.0
53937.0,STARLINK-4765,PAYLOAD,2022-12-21 11:14:55,15.73174386,0.0004134,53.2109,179.915,9.8127,350.2973,-0.00010972,-0.00015985,0.0,0 STARLINK-4765,1 53937U 22119BD  22355.46869653 -.00015985  00000-0 -10972-3 0  9998,2 53937  53.2109 179.9150 0004134   9.8127 350.2973 15.73174386 14201,6727.968000000003,91.535,352.615,347.052,0.0
53937.0,STARLINK-4765,PAYLOAD,2022-12-21 12:46:24,15.73173335,0.0004034,53.2111,179.601,8.673,351.4359,-0.0001047,-0.00015282,0.0,0 STARLINK-4765,1 53937U 22119BD  22355.53222501 -.00015282  00000-0 -10470-3 0  9994,2 53937  53.2111 179.6010 0004034   8.6730 351.4359 15.73173335 14644,6727.971,91.535,352.55,347.122,0.0
53937.0,STARLINK-4765,PAYLOAD,2022-12-21 18:52:19,15.73185053,0.0003879,53.21100000000001,178.3441,9.2398,350.8693,-5.3823e-05,-8.169e-05,0.0,0 STARLINK-4765,1 53937U 22119BD  22355.78633593 -.00008169  00000-0 -53823-4 0  9994,2 53937  53.2110 178.3441 0003879   9.2398 350.8693 15.73185053 14251,6727.938,91.534,352.413,347.1930000000001,0.0
53937.0,STARLINK-4765,PAYLOAD,2022-12-22 08:35:38,15.732139300000002,0.0003753,53.2138,175.5152,0.7259,359.3766,4.4429e-05,5.621e-05,0.0,0 STARLINK-4765,1 53937U 22119BD  22356.35807905  .00005621  00000-0  44429-4 0  9998,2 53937  53.2138 175.5152 0003753   0.7259 359.3766 15.73213930 14343,6727.855,91.532,352.245,347.195,0.0
53937.0,STARLINK-4765,PAYLOAD,2022-12-22 19:16:00,15.73202932,0.000316,53.2121,173.315,353.0954,7.0022,6.3778e-05,8.340000000000001e-05,0.0,0 STARLINK-4765,1 53937U 22119BD  22356.80278211  .00008340  00000-0  63778-4 0  9999,2 53937  53.2121 173.3150 0003160 353.0954   7.0022 15.73202932 14844,6727.887,91.533,351.87800000000016,347.626,0.0
53937.0,STARLINK-4765,PAYLOAD,2022-12-23 07:27:51,15.73193001,0.000392,53.2117,170.799,6.4606,353.6464,1.7979000000000002e-05,1.9e-05,0.0,0 STARLINK-4765,1 53937U 22119BD  22357.31101441  .00001900  00000-0  17979-4 0  9993,2 53937  53.2117 170.7990 0003920   6.4606 353.6464 15.73193001 14496,6727.915,91.534,352.417,347.14300000000014,0.0
53937.0,STARLINK-4765,PAYLOAD,2022-12-23 10:30:49,15.73195684,0.0003727,53.2116,170.17,4.7169,355.3885,1.0284e-05,8.19e-06,0.0,0 STARLINK-4765,1 53937U 22119BD  22357.43806914  .00000819  00000-0  10284-4 0  9993,2 53937  53.2116 170.1700 0003727   4.7169 355.3885 15.73195684 14943,6727.906999999997,91.533,352.28,347.265,0.0
53937.0,STARLINK-4765,PAYLOAD,2022-12-23 18:08:13,15.73189438,0.0004184,53.2121,168.5989,0.0481,0.0539,-1.715e-05,-3.031e-05,0.0,0 STARLINK-4765,1 53937U 22119BD  22357.75571192 -.00003031  00000-0 -17150-4 0  9995,2 53937  53.2121 168.5989 0004184   0.0481   0.0539 15.73189438 14998,6727.925,91.534,352.605,346.975,0.0
53937.0,STARLINK-4765,PAYLOAD,2022-12-24 04:48:34,15.73217494,0.0004223,53.2128,166.3974,0.4438,359.6585,4.1827e-05,5.256e-05,0.0,0 STARLINK-4765,1 53937U 22119BD  22358.20039783  .00005256  00000-0  41827-4 0  9998,2 53937  53.2128 166.3974 0004223   0.4438 359.6585 15.73217494 14634,6727.845,91.532,352.551,346.869,0.0
